{"updated_at":"2026-06-14T00:15:38.702233Z","count":200,"data":[{"NORAD_CAT_ID":"69255","OBJECT_NAME":"STARLINK-37378","OBJECT_ID":"2026-117T","EPOCH":"2026-06-13T17:38:49.189056","TLE_LINE1":"1 69255U 26117T   26164.73529154  .00238993  00000-0  11160-2 0  9994","TLE_LINE2":"2 69255  53.1588 260.5290 0001061  90.2281 269.8864 15.82101028  2433"},{"NORAD_CAT_ID":"69256","OBJECT_NAME":"STARLINK-37396","OBJECT_ID":"2026-117U","EPOCH":"2026-06-13T19:06:15.036768","TLE_LINE1":"1 69256U 26117U   26164.79600737  .00246125  00000-0  11468-2 0  9995","TLE_LINE2":"2 69256  53.1583 260.1936 0000854 120.9543 239.1564 15.82127789  2443"},{"NORAD_CAT_ID":"69250","OBJECT_NAME":"STARLINK-37499","OBJECT_ID":"2026-177N","EPOCH":"2026-06-13T20:59:39.638112","TLE_LINE1":"1 69250U 26117N   26164.87476433  .00092554  00000-0  44276-3 0  9991","TLE_LINE2":"2 69250  53.1593 259.9848 0001216  66.4906 293.6245 15.82046554  2458"},{"NORAD_CAT_ID":"69251","OBJECT_NAME":"STARLINK-37489","OBJECT_ID":"2026-117P","EPOCH":"2026-06-13T19:26:08.964672","TLE_LINE1":"1 69251U 26117P   26164.80982598  .00233032  00000-0  10883-2 0  9993","TLE_LINE2":"2 69251  53.1593 260.2889 0000673  92.3294 267.7806 15.82113191  2449"},{"NORAD_CAT_ID":"69252","OBJECT_NAME":"STARLINK-37434","OBJECT_ID":"2026-117Q","EPOCH":"2026-06-13T20:52:51.077568","TLE_LINE1":"1 69252U 26117Q   26164.87003562  .00117405  00000-0  55901-3 0  9992","TLE_LINE2":"2 69252  53.1588 259.9520 0002060  44.5958 315.5230 15.82050306  2451"},{"NORAD_CAT_ID":"69253","OBJECT_NAME":"STARLINK-37368","OBJECT_ID":"2026-117R","EPOCH":"2026-06-13T17:41:11.426784","TLE_LINE1":"1 69253U 26117R   26164.73693781  .00211326  00000-0  99072-3 0  9990","TLE_LINE2":"2 69253  53.1587 260.5400 0000785  73.5344 286.5765 15.82092669  2435"},{"NORAD_CAT_ID":"69257","OBJECT_NAME":"STARLINK-37508","OBJECT_ID":"2026-117V","EPOCH":"2026-06-13T20:00:01.999008","TLE_LINE1":"1 69257U 26117V   26164.83335647 -.00071332  00000-0 -36004-3 0  9998","TLE_LINE2":"2 69257  53.1586 260.0044 0001415  50.6166 163.5053 15.80920267  3624"},{"NORAD_CAT_ID":"69258","OBJECT_NAME":"STARLINK-37276","OBJECT_ID":"2026-117W","EPOCH":"2026-06-13T20:00:01.999008","TLE_LINE1":"1 69258U 26117W   26164.83335647 -.00056111  00000-0 -28228-3 0  9996","TLE_LINE2":"2 69258  53.1580 259.6856 0001124  68.8099 298.8164 15.80895928  3627"},{"NORAD_CAT_ID":"69259","OBJECT_NAME":"STARLINK-37518","OBJECT_ID":"2026-117X","EPOCH":"2026-06-13T20:00:01.999008","TLE_LINE1":"1 69259U 26117X   26164.83335647 -.00024439  00000-0 -12057-3 0  9998","TLE_LINE2":"2 69259  53.1583 259.7012 0001136 105.5573 255.0682 15.80883540  3633"},{"NORAD_CAT_ID":"69260","OBJECT_NAME":"STARLINK-37478","OBJECT_ID":"2026-117Y","EPOCH":"2026-06-13T20:00:01.999008","TLE_LINE1":"1 69260U 26117Y   26164.83335647 -.00035699  00000-0 -17797-3 0  9996","TLE_LINE2":"2 69260  53.1583 259.7037 0001189  89.0430 270.3009 15.80885281  3635"},{"NORAD_CAT_ID":"69261","OBJECT_NAME":"STARLINK-37506","OBJECT_ID":"2026-117Z","EPOCH":"2026-06-13T20:00:01.999008","TLE_LINE1":"1 69261U 26117Z   26164.83335647 -.00065733  00000-0 -33151-3 0  9991","TLE_LINE2":"2 69261  53.1578 259.6974 0001156  74.8970 287.2229 15.80905931  3630"},{"NORAD_CAT_ID":"69262","OBJECT_NAME":"STARLINK-37503","OBJECT_ID":"2026-117AA","EPOCH":"2026-06-13T20:00:01.999008","TLE_LINE1":"1 69262U 26117AA  26164.83335647 -.00056989  00000-0 -28675-3 0  9990","TLE_LINE2":"2 69262  53.1583 259.6939 0001274 117.9095 245.6790 15.80897674  3631"},{"NORAD_CAT_ID":"69263","OBJECT_NAME":"STARLINK-37502","OBJECT_ID":"2026-117AB","EPOCH":"2026-06-13T20:00:01.999008","TLE_LINE1":"1 69263U 26117AB  26164.83335647 -.00000451  00000-0  12506-5 0  9991","TLE_LINE2":"2 69263  53.1583 259.6875 0000860  74.1118 292.4230 15.80860059  3637"},{"NORAD_CAT_ID":"69264","OBJECT_NAME":"STARLINK-37486","OBJECT_ID":"2026-117AC","EPOCH":"2026-06-13T20:00:01.999008","TLE_LINE1":"1 69264U 26117AC  26164.83335647 -.00020892  00000-0 -10255-3 0  9991","TLE_LINE2":"2 69264  53.1578 259.6728 0000945  78.0215 295.4527 15.80877036  3639"},{"NORAD_CAT_ID":"69265","OBJECT_NAME":"STARLINK-37435","OBJECT_ID":"2026-117AD","EPOCH":"2026-06-13T20:00:01.999008","TLE_LINE1":"1 69265U 26117AD  26164.83335647 -.00046175  00000-0 -23144-3 0  9995","TLE_LINE2":"2 69265  53.1580 259.6898 0001117 110.4428 254.5441 15.80892451  3639"},{"NORAD_CAT_ID":"69266","OBJECT_NAME":"STARLINK-37464","OBJECT_ID":"2026-117AE","EPOCH":"2026-06-13T20:00:01.999008","TLE_LINE1":"1 69266U 26117AE  26164.83335647 -.00020889  00000-0 -97281-4 0  9994","TLE_LINE2":"2 69266  53.1576 259.6648 0001048  89.9312 286.9558 15.81995872  3633"},{"NORAD_CAT_ID":"69267","OBJECT_NAME":"KUIPER-00282","OBJECT_ID":"2026-118A","EPOCH":"2026-06-13T20:03:14.646816","TLE_LINE1":"1 69267U 26118A   26164.83558619  .00016414  00000-0  48897-3 0  9997","TLE_LINE2":"2 69267  51.8586  69.7094 0011898 168.3593 191.7670 15.34758590  3463"},{"NORAD_CAT_ID":"69268","OBJECT_NAME":"KUIPER-00383","OBJECT_ID":"2026-118B","EPOCH":"2026-06-13T19:58:56.575200","TLE_LINE1":"1 69268U 26118B   26164.83259925  .00010849  00000-0  32846-3 0  9999","TLE_LINE2":"2 69268  51.8588  69.6914 0010702 167.7166 192.4082 15.34653482  3467"},{"NORAD_CAT_ID":"69269","OBJECT_NAME":"KUIPER-00527","OBJECT_ID":"2026-118C","EPOCH":"2026-06-13T19:53:36.357792","TLE_LINE1":"1 69269U 26118C   26164.82889303  .00022559  00000-0  66182-3 0  9999","TLE_LINE2":"2 69269  51.8614  69.6698 0010217 164.1372 195.9935 15.35034469  3462"},{"NORAD_CAT_ID":"69270","OBJECT_NAME":"KUIPER-00562","OBJECT_ID":"2026-118D","EPOCH":"2026-06-13T19:17:20.579424","TLE_LINE1":"1 69270U 26118D   26164.80371041  .00028291  00000-0  73932-3 0  9994","TLE_LINE2":"2 69270  51.8729  69.5017 0001784  97.8296 262.2894 15.38549774  3466"},{"NORAD_CAT_ID":"69271","OBJECT_NAME":"KUIPER-00570","OBJECT_ID":"2026-118E","EPOCH":"2026-06-13T19:56:28.101120","TLE_LINE1":"1 69271U 26118E   26164.83088080 -.00027723  00000-0 -78784-3 0  9997","TLE_LINE2":"2 69271  51.8576  69.6777 0011518 172.4929 187.6231 15.35246203  3463"},{"NORAD_CAT_ID":"69272","OBJECT_NAME":"KUIPER-00572","OBJECT_ID":"2026-118F","EPOCH":"2026-06-13T19:39:58.800384","TLE_LINE1":"1 69272U 26118F   26164.81943056  .00024951  00000-0  68814-3 0  9990","TLE_LINE2":"2 69272  51.8675  69.6112 0007499 158.7677 201.3622 15.36929894  3460"},{"NORAD_CAT_ID":"69273","OBJECT_NAME":"KUIPER-00581","OBJECT_ID":"2026-118G","EPOCH":"2026-06-13T19:44:28.902336","TLE_LINE1":"1 69273U 26118G   26164.82255674  .00028153  00000-0  78369-3 0  9998","TLE_LINE2":"2 69273  51.8654  69.6310 0008982 161.8062 198.3247 15.36562362  3550"},{"NORAD_CAT_ID":"69274","OBJECT_NAME":"KUIPER-00584","OBJECT_ID":"2026-118H","EPOCH":"2026-06-13T19:59:29.167008","TLE_LINE1":"1 69274U 26118H   26164.83297647  .00019724  00000-0  57634-3 0  9992","TLE_LINE2":"2 69274  51.8607  69.6951 0011397 176.6964 183.4098 15.35236082  3464"},{"NORAD_CAT_ID":"69275","OBJECT_NAME":"KUIPER-00587","OBJECT_ID":"2026-118J","EPOCH":"2026-06-13T19:43:41.849760","TLE_LINE1":"1 69275U 26118J   26164.82201215  .00027890  00000-0  77550-3 0  9990","TLE_LINE2":"2 69275  51.8628  69.6265 0008080 164.4645 195.6590 15.36608736  3464"},{"NORAD_CAT_ID":"69276","OBJECT_NAME":"KUIPER-00590","OBJECT_ID":"2026-118K","EPOCH":"2026-06-13T19:27:40.610880","TLE_LINE1":"1 69276U 26118K   26164.81088670  .00027348  00000-0  73158-3 0  9996","TLE_LINE2":"2 69276  51.8693  69.5556 0004067 146.3720 213.7526 15.37842613  3469"},{"NORAD_CAT_ID":"69277","OBJECT_NAME":"KUIPER-00592","OBJECT_ID":"2026-118L","EPOCH":"2026-06-13T19:24:39.641760","TLE_LINE1":"1 69277U 26118L   26164.80879215  .00024143  00000-0  64243-3 0  9994","TLE_LINE2":"2 69277  51.8714  69.5411 0003442 123.2962 236.8355 15.38079714  3463"},{"NORAD_CAT_ID":"69278","OBJECT_NAME":"KUIPER-00593","OBJECT_ID":"2026-118M","EPOCH":"2026-06-13T19:25:30.484704","TLE_LINE1":"1 69278U 26118M   26164.80938061  .00027831  00000-0  74106-3 0  9996","TLE_LINE2":"2 69278  51.8717  69.5432 0003842 142.0887 218.0371 15.37976565  3525"},{"NORAD_CAT_ID":"69279","OBJECT_NAME":"KUIPER-00594","OBJECT_ID":"2026-118N","EPOCH":"2026-06-13T19:15:46.347264","TLE_LINE1":"1 69279U 26118N   26164.80261976  .00024380  00000-0  63816-3 0  9993","TLE_LINE2":"2 69279  51.8724  69.4985 0001170  63.2315 296.8792 15.38582811  3460"}]}