OBJECT_NAME,OBJECT_ID,EPOCH,MEAN_MOTION,ECCENTRICITY,INCLINATION,RA_OF_ASC_NODE,ARG_OF_PERICENTER,MEAN_ANOMALY,EPHEMERIS_TYPE,CLASSIFICATION_TYPE,NORAD_CAT_ID,ELEMENT_SET_NO,REV_AT_EPOCH,BSTAR,MEAN_MOTION_DOT,MEAN_MOTION_DDOT
STARLINK-37499,2026-117N,2026-06-13T20:59:39.638112,15.82046554,.0001216,53.1593,259.9848,66.4906,293.6245,0,U,69250,999,245,.44276E-3,.92554E-3,0
STARLINK-37489,2026-117P,2026-06-13T19:26:08.964672,15.82113191,.0000673,53.1593,260.2889,92.3294,267.7806,0,U,69251,999,244,.10883E-2,.233032E-2,0
STARLINK-37434,2026-117Q,2026-06-13T20:52:51.077568,15.82050306,.000206,53.1588,259.9520,44.5958,315.5230,0,U,69252,999,245,.55901E-3,.117405E-2,0
STARLINK-37368,2026-117R,2026-06-13T17:41:11.426784,15.82092669,.0000785,53.1587,260.5400,73.5344,286.5765,0,U,69253,999,243,.99072E-3,.211326E-2,0
STARLINK-37378,2026-117T,2026-06-13T17:38:49.189056,15.82101028,.0001061,53.1588,260.5290,90.2281,269.8864,0,U,69255,999,243,.1116E-2,.238993E-2,0
STARLINK-37396,2026-117U,2026-06-13T19:06:15.036768,15.82127789,.0000854,53.1583,260.1936,120.9543,239.1564,0,U,69256,999,244,.11468E-2,.246125E-2,0
STARLINK-37508,2026-117V,2026-06-13T20:00:01.999008,15.80920267,.0001415,53.1586,260.0044,50.6166,163.5053,0,U,69257,999,362,-.36004E-3,-.71332E-3,0
STARLINK-37276,2026-117W,2026-06-13T20:00:01.999008,15.80895928,.0001124,53.1580,259.6856,68.8099,298.8164,0,U,69258,999,362,-.28228E-3,-.56111E-3,0
STARLINK-37518,2026-117X,2026-06-13T20:00:01.999008,15.80883540,.0001136,53.1583,259.7012,105.5573,255.0682,0,U,69259,999,363,-.12057E-3,-.24439E-3,0
STARLINK-37478,2026-117Y,2026-06-13T20:00:01.999008,15.80885281,.0001189,53.1583,259.7037,89.0430,270.3009,0,U,69260,999,363,-.17797E-3,-.35699E-3,0
STARLINK-37506,2026-117Z,2026-06-13T20:00:01.999008,15.80905931,.0001156,53.1578,259.6974,74.8970,287.2229,0,U,69261,999,363,-.33151E-3,-.65733E-3,0
STARLINK-37503,2026-117AA,2026-06-13T20:00:01.999008,15.80897674,.0001274,53.1583,259.6939,117.9095,245.6790,0,U,69262,999,363,-.28675E-3,-.56989E-3,0
STARLINK-37502,2026-117AB,2026-06-13T20:00:01.999008,15.80860059,.000086,53.1583,259.6875,74.1118,292.4230,0,U,69263,999,363,.12506E-5,-.451E-5,0
STARLINK-37486,2026-117AC,2026-06-13T20:00:01.999008,15.80877036,.0000945,53.1578,259.6728,78.0215,295.4527,0,U,69264,999,363,-.10255E-3,-.20892E-3,0
STARLINK-37435,2026-117AD,2026-06-13T20:00:01.999008,15.80892451,.0001117,53.1580,259.6898,110.4428,254.5441,0,U,69265,999,363,-.23144E-3,-.46175E-3,0
STARLINK-37464,2026-117AE,2026-06-13T20:00:01.999008,15.81995872,.0001048,53.1576,259.6648,89.9312,286.9558,0,U,69266,999,363,-.97281E-4,-.20889E-3,0
KUIPER-00282,2026-118A,2026-06-13T20:03:14.646816,15.34758590,.0011898,51.8586,69.7094,168.3593,191.7670,0,U,69267,999,346,.48897E-3,.16414E-3,0
KUIPER-00383,2026-118B,2026-06-13T19:58:56.575200,15.34653482,.0010702,51.8588,69.6914,167.7166,192.4082,0,U,69268,999,346,.32846E-3,.10849E-3,0
KUIPER-00527,2026-118C,2026-06-13T19:53:36.357792,15.35034469,.0010217,51.8614,69.6698,164.1372,195.9935,0,U,69269,999,346,.66182E-3,.22559E-3,0
KUIPER-00562,2026-118D,2026-06-13T19:17:20.579424,15.38549774,.0001784,51.8729,69.5017,97.8296,262.2894,0,U,69270,999,346,.73932E-3,.28291E-3,0
KUIPER-00570,2026-118E,2026-06-13T19:56:28.101120,15.35246203,.0011518,51.8576,69.6777,172.4929,187.6231,0,U,69271,999,346,-.78784E-3,-.27723E-3,0
KUIPER-00572,2026-118F,2026-06-13T19:39:58.800384,15.36929894,.0007499,51.8675,69.6112,158.7677,201.3622,0,U,69272,999,346,.68814E-3,.24951E-3,0
KUIPER-00581,2026-118G,2026-06-13T19:44:28.902336,15.36562362,.0008982,51.8654,69.6310,161.8062,198.3247,0,U,69273,999,355,.78369E-3,.28153E-3,0
KUIPER-00584,2026-118H,2026-06-13T19:59:29.167008,15.35236082,.0011397,51.8607,69.6951,176.6964,183.4098,0,U,69274,999,346,.57634E-3,.19724E-3,0
KUIPER-00587,2026-118J,2026-06-13T19:43:41.849760,15.36608736,.000808,51.8628,69.6265,164.4645,195.6590,0,U,69275,999,346,.7755E-3,.2789E-3,0
KUIPER-00590,2026-118K,2026-06-13T19:27:40.610880,15.37842613,.0004067,51.8693,69.5556,146.3720,213.7526,0,U,69276,999,346,.73158E-3,.27348E-3,0
KUIPER-00592,2026-118L,2026-06-13T19:24:39.641760,15.38079714,.0003442,51.8714,69.5411,123.2962,236.8355,0,U,69277,999,346,.64243E-3,.24143E-3,0
KUIPER-00593,2026-118M,2026-06-13T19:25:30.484704,15.37976565,.0003842,51.8717,69.5432,142.0887,218.0371,0,U,69278,999,352,.74106E-3,.27831E-3,0
KUIPER-00594,2026-118N,2026-06-13T19:15:46.347264,15.38582811,.000117,51.8724,69.4985,63.2315,296.8792,0,U,69279,999,346,.63816E-3,.2438E-3,0
